start=new Date('2022-02-13T00:00:00.000Z').valueOf();
sats=[{"MEAN_MOTION_DDOT":"0.0000000000000","BSTAR":"0.00012259000000","OBJECT_ID":"2021-036U","RA_OF_ASC_NODE":"275.9863","OBJECT_TYPE":"PAYLOAD","COUNTRY_CODE":"US","MEAN_ELEMENT_THEORY":"SGP4","MEAN_MOTION_DOT":"0.00001545","GP_ID":"195790384","RCS_SIZE":"LARGE","NORAD_CAT_ID":"48294","DECAY_DATE":null,"ECCENTRICITY":"0.00019190","PERIAPSIS":"545.847","EPHEMERIS_TYPE":"0","TLE_LINE1":"1 48294U 21036U   22042.92281500  .00001545  00000-0  12259-3 0  9993","EPOCH":"2022-02-11T22:08:51.216000","CLASSIFICATION_TYPE":"U","FILE":"3298257","OBJECT_NAME":"STARLINK-2533","ARG_OF_PERICENTER":"57.2475","APOAPSIS":"548.505","INCLINATION":"53.0530","SITE":"AFETR","REV_AT_EPOCH":"4422","MEAN_MOTION":"15.06412294","ELEMENT_SET_NO":"999","PERIOD":"95.591","TIME_SYSTEM":"UTC","SEMIMAJOR_AXIS":"6925.311","TLE_LINE2":"2 48294  53.0530 275.9863 0001919  57.2475 302.8699 15.06412294 44228","CENTER_NAME":"EARTH","MEAN_ANOMALY":"302.8699","REF_FRAME":"TEME","LAUNCH_DATE":"2021-04-29"},{"ARG_OF_PERICENTER":"72.5698","OBJECT_NAME":"STARLINK-2535","APOAPSIS":"548.260","FILE":"3298634","CLASSIFICATION_TYPE":"U","TLE_LINE1":"1 48295U 21036V   22043.78163275 -.00002298  00000-0 -13538-3 0  9996","PERIAPSIS":"546.080","EPHEMERIS_TYPE":"0","EPOCH":"2022-02-12T18:45:33.069600","ECCENTRICITY":"0.00015740","REF_FRAME":"TEME","LAUNCH_DATE":"2021-04-29","TLE_LINE2":"2 48295  53.0521 272.1135 0001574  72.5698 287.5463 15.06414231 44933","SEMIMAJOR_AXIS":"6925.305","MEAN_ANOMALY":"287.5463","CENTER_NAME":"EARTH","TIME_SYSTEM":"UTC","MEAN_MOTION":"15.06414231","PERIOD":"95.591","ELEMENT_SET_NO":"999","REV_AT_EPOCH":"4493","INCLINATION":"53.0521","SITE":"AFETR","BSTAR":"-0.00013538000000","OBJECT_ID":"2021-036V","MEAN_MOTION_DDOT":"0.0000000000000","NORAD_CAT_ID":"48295","DECAY_DATE":null,"RCS_SIZE":"LARGE","GP_ID":"195826086","MEAN_MOTION_DOT":"-0.00002298","COUNTRY_CODE":"US","OBJECT_TYPE":"PAYLOAD","MEAN_ELEMENT_THEORY":"SGP4","RA_OF_ASC_NODE":"272.1135"},{"FILE":"3298696","CLASSIFICATION_TYPE":"U","APOAPSIS":"548.235","ARG_OF_PERICENTER":"67.8659","OBJECT_NAME":"STARLINK-2546","ECCENTRICITY":"0.00014510","EPOCH":"2022-02-12T18:40:14.623392","TLE_LINE1":"1 48296U 21036W   22043.77794703 -.00003496  00000-0 -21597-3 0  9997","PERIAPSIS":"546.225","EPHEMERIS_TYPE":"0","TIME_SYSTEM":"UTC","LAUNCH_DATE":"2021-04-29","REF_FRAME":"TEME","TLE_LINE2":"2 48296  53.0528 272.1394 0001451  67.8659 292.2484 15.06394753 44938","SEMIMAJOR_AXIS":"6925.365","MEAN_ANOMALY":"292.2484","CENTER_NAME":"EARTH","REV_AT_EPOCH":"4493","INCLINATION":"53.0528","SITE":"AFETR","PERIOD":"95.592","ELEMENT_SET_NO":"999","MEAN_MOTION":"15.06394753","BSTAR":"-0.00021597000000","OBJECT_ID":"2021-036W","MEAN_MOTION_DDOT":"0.0000000000000","GP_ID":"195826797","RCS_SIZE":"LARGE","MEAN_MOTION_DOT":"-0.00003496","DECAY_DATE":null,"NORAD_CAT_ID":"48296","RA_OF_ASC_NODE":"272.1394","MEAN_ELEMENT_THEORY":"SGP4","COUNTRY_CODE":"US","OBJECT_TYPE":"PAYLOAD"},{"TLE_LINE2":"2 48297  53.0538 272.1536 0001918  62.3985 297.7199 15.06401587 44935","SEMIMAJOR_AXIS":"6925.344","CENTER_NAME":"EARTH","MEAN_ANOMALY":"297.7199","LAUNCH_DATE":"2021-04-29","REF_FRAME":"TEME","TIME_SYSTEM":"UTC","MEAN_MOTION":"15.06401587","ELEMENT_SET_NO":"999","PERIOD":"95.592","INCLINATION":"53.0538","SITE":"AFETR","REV_AT_EPOCH":"4493","ARG_OF_PERICENTER":"62.3985","OBJECT_NAME":"STARLINK-2544","APOAPSIS":"548.537","FILE":"3298676","CLASSIFICATION_TYPE":"U","EPHEMERIS_TYPE":"0","PERIAPSIS":"545.880","TLE_LINE1":"1 48297U 21036X   22043.77427577  .00000005  00000-0  19217-4 0  9998","EPOCH":"2022-02-12T18:34:57.426528","ECCENTRICITY":"0.00019180","NORAD_CAT_ID":"48297","DECAY_DATE":null,"MEAN_MOTION_DOT":"0.00000005","GP_ID":"195826805","RCS_SIZE":"LARGE","OBJECT_TYPE":"PAYLOAD","COUNTRY_CODE":"US","MEAN_ELEMENT_THEORY":"SGP4","RA_OF_ASC_NODE":"272.1536","OBJECT_ID":"2021-036X","BSTAR":"0.00001921700000","MEAN_MOTION_DDOT":"0.0000000000000"},{"REV_AT_EPOCH":"4493","SITE":"AFETR","INCLINATION":"53.0534","MEAN_MOTION":"15.06409256","PERIOD":"95.592","ELEMENT_SET_NO":"999","TIME_SYSTEM":"UTC","LAUNCH_DATE":"2021-04-29","REF_FRAME":"TEME","TLE_LINE2":"2 48298  53.0534 272.1732 0001615  74.6944 285.4224 15.06409256 44939","CENTER_NAME":"EARTH","SEMIMAJOR_AXIS":"6925.320","MEAN_ANOMALY":"285.4224","ECCENTRICITY":"0.00016150","TLE_LINE1":"1 48298U 21036Y   22043.77057322  .00000452  00000-0  49241-4 0  9992","EPHEMERIS_TYPE":"0","PERIAPSIS":"546.067","EPOCH":"2022-02-12T18:29:37.526208","CLASSIFICATION_TYPE":"U","FILE":"3298676","ARG_OF_PERICENTER":"74.6944","OBJECT_NAME":"STARLINK-2559","APOAPSIS":"548.304","RA_OF_ASC_NODE":"272.1732","COUNTRY_CODE":"US","OBJECT_TYPE":"PAYLOAD","MEAN_ELEMENT_THEORY":"SGP4","GP_ID":"195826426","RCS_SIZE":"LARGE","MEAN_MOTION_DOT":"0.00000452","NORAD_CAT_ID":"48298","DECAY_DATE":null,"MEAN_MOTION_DDOT":"0.0000000000000","BSTAR":"0.00004924100000","OBJECT_ID":"2021-036Y"},{"MEAN_MOTION_DDOT":"0.0000000000000","BSTAR":"0.00015903000000","OBJECT_ID":"2021-036Z","MEAN_ELEMENT_THEORY":"SGP4","OBJECT_TYPE":"PAYLOAD","COUNTRY_CODE":"US","RA_OF_ASC_NODE":"273.9826","DECAY_DATE":null,"NORAD_CAT_ID":"48299","MEAN_MOTION_DOT":"0.00002089","GP_ID":"195820313","RCS_SIZE":"LARGE","EPOCH":"2022-02-12T08:51:04.416768","EPHEMERIS_TYPE":"0","PERIAPSIS":"545.988","TLE_LINE1":"1 48299U 21036Z   22043.36880112  .00002089  00000-0  15903-3 0  9994","ECCENTRICITY":"0.00017030","APOAPSIS":"548.346","ARG_OF_PERICENTER":"52.7395","OBJECT_NAME":"STARLINK-2557","FILE":"3298493","CLASSIFICATION_TYPE":"U","ELEMENT_SET_NO":"999","PERIOD":"95.591","MEAN_MOTION":"15.06415218","INCLINATION":"53.0531","SITE":"AFETR","REV_AT_EPOCH":"4429","MEAN_ANOMALY":"307.3749","TLE_LINE2":"2 48299  53.0531 273.9826 0001703  52.7395 307.3749 15.06415218 44295","SEMIMAJOR_AXIS":"6925.302","CENTER_NAME":"EARTH","REF_FRAME":"TEME","LAUNCH_DATE":"2021-04-29","TIME_SYSTEM":"UTC"},{"MEAN_MOTION_DDOT":"0.0000000000000","OBJECT_ID":"2021-036AA","BSTAR":"0.00000457730000","OBJECT_TYPE":"PAYLOAD","COUNTRY_CODE":"US","MEAN_ELEMENT_THEORY":"SGP4","RA_OF_ASC_NODE":"281.9394","NORAD_CAT_ID":"48300","DECAY_DATE":null,"MEAN_MOTION_DOT":"-0.00000213","GP_ID":"195826821","RCS_SIZE":"LARGE","EPHEMERIS_TYPE":"0","PERIAPSIS":"546.031","TLE_LINE1":"1 48300U 21036AA  22043.82494426 -.00000213  00000-0  45773-5 0  9995","EPOCH":"2022-02-12T19:47:55.184064","ECCENTRICITY":"0.00017210","ARG_OF_PERICENTER":"64.9838","OBJECT_NAME":"STARLINK-2538","APOAPSIS":"548.414","CLASSIFICATION_TYPE":"U","FILE":"3298677","MEAN_MOTION":"15.06397079","ELEMENT_SET_NO":"999","PERIOD":"95.592","INCLINATION":"53.0535","SITE":"AFETR","REV_AT_EPOCH":"4480","TLE_LINE2":"2 48300  53.0535 281.9394 0001721  64.9838 295.1330 15.06397079 44809","MEAN_ANOMALY":"295.1330","SEMIMAJOR_AXIS":"6925.358","CENTER_NAME":"EARTH","LAUNCH_DATE":"2021-04-29","REF_FRAME":"TEME","TIME_SYSTEM":"UTC"},{"EPOCH":"2022-02-12T19:42:35.996544","PERIAPSIS":"546.221","EPHEMERIS_TYPE":"0","TLE_LINE1":"1 48301U 21036AB  22043.82124996 -.00001699  00000-0 -95187-4 0  9991","ECCENTRICITY":"0.00014270","APOAPSIS":"548.197","ARG_OF_PERICENTER":"77.0305","OBJECT_NAME":"STARLINK-2537","FILE":"3298680","CLASSIFICATION_TYPE":"U","ELEMENT_SET_NO":"999","PERIOD":"95.592","MEAN_MOTION":"15.06401417","SITE":"AFETR","INCLINATION":"53.0553","REV_AT_EPOCH":"4479","SEMIMAJOR_AXIS":"6925.344","TLE_LINE2":"2 48301  53.0553 281.9388 0001427  77.0305 283.0843 15.06401417 44795","MEAN_ANOMALY":"283.0843","CENTER_NAME":"EARTH","LAUNCH_DATE":"2021-04-29","REF_FRAME":"TEME","TIME_SYSTEM":"UTC","MEAN_MOTION_DDOT":"0.0000000000000","OBJECT_ID":"2021-036AB","BSTAR":"-0.00009518700000","MEAN_ELEMENT_THEORY":"SGP4","OBJECT_TYPE":"PAYLOAD","COUNTRY_CODE":"US","RA_OF_ASC_NODE":"281.9388","DECAY_DATE":null,"NORAD_CAT_ID":"48301","MEAN_MOTION_DOT":"-0.00001699","GP_ID":"195826873","RCS_SIZE":"LARGE"},{"EPOCH":"2022-02-12T19:37:17.962464","TLE_LINE1":"1 48302U 21036AC  22043.81756901 -.00004963  00000-0 -31457-3 0  9994","EPHEMERIS_TYPE":"0","PERIAPSIS":"546.212","ECCENTRICITY":"0.00014720","APOAPSIS":"548.251","OBJECT_NAME":"STARLINK-2556","ARG_OF_PERICENTER":"48.6173","CLASSIFICATION_TYPE":"U","FILE":"3299006","PERIOD":"95.593","ELEMENT_SET_NO":"999","MEAN_MOTION":"15.06394253","REV_AT_EPOCH":"4479","SITE":"AFETR","INCLINATION":"53.0555","REF_FRAME":"TEME","LAUNCH_DATE":"2021-04-29","TLE_LINE2":"2 48302  53.0555 281.9669 0001472  48.6173 311.4942 15.06394253 44792","SEMIMAJOR_AXIS":"6925.366","MEAN_ANOMALY":"311.4942","CENTER_NAME":"EARTH","TIME_SYSTEM":"UTC","MEAN_MOTION_DDOT":"0.0000000000000","BSTAR":"-0.00031457000000","OBJECT_ID":"2021-036AC","MEAN_ELEMENT_THEORY":"SGP4","COUNTRY_CODE":"US","OBJECT_TYPE":"PAYLOAD","RA_OF_ASC_NODE":"281.9669","DECAY_DATE":null,"NORAD_CAT_ID":"48302","RCS_SIZE":"LARGE","GP_ID":"195832662","MEAN_MOTION_DOT":"-0.00004963"},{"TIME_SYSTEM":"UTC","LAUNCH_DATE":"2021-04-29","REF_FRAME":"TEME","TLE_LINE2":"2 48303  53.0554 281.9720 0001524  55.8833 304.2300 15.06389722 44806","SEMIMAJOR_AXIS":"6925.380","MEAN_ANOMALY":"304.2300","CENTER_NAME":"EARTH","REV_AT_EPOCH":"4480","SITE":"AFETR","INCLINATION":"53.0554","MEAN_MOTION":"15.06389722","PERIOD":"95.593","ELEMENT_SET_NO":"999","CLASSIFICATION_TYPE":"U","FILE":"3298743","ARG_OF_PERICENTER":"55.8833","OBJECT_NAME":"STARLINK-2530","APOAPSIS":"548.300","ECCENTRICITY":"0.00015240","TLE_LINE1":"1 48303U 21036AD  22043.81388813 -.00003282  00000-0 -20162-3 0  9992","EPHEMERIS_TYPE":"0","PERIAPSIS":"546.190","EPOCH":"2022-02-12T19:31:59.934432","RCS_SIZE":"LARGE","GP_ID":"195827382","MEAN_MOTION_DOT":"-0.00003282","NORAD_CAT_ID":"48303","DECAY_DATE":null,"RA_OF_ASC_NODE":"281.9720","COUNTRY_CODE":"US","OBJECT_TYPE":"PAYLOAD","MEAN_ELEMENT_THEORY":"SGP4","OBJECT_ID":"2021-036AD","BSTAR":"-0.00020162000000","MEAN_MOTION_DDOT":"0.0000000000000"}];
